SatCatId,ObjectName,LaunchYear,OrbitalPeriod,LaunchMass,StatusCode,Inclination,Status,UcsData,OrbitClassEstimated,LaunchSiteCountry,Owner,UseType,Purpose,LaunchVehicleClass,TLE1,TLE2,MeanMotion,Eccentricity,OrbitClass
57243,STARLINK-6346,2023,95.58,-1.0,+,43.0,Active,0,LEO,USA,USA,Unknown,Unknown,Unknown,1 57243U 23094AB  23266.83334491 -.00911795  00000+0 -66533-1 0  9990,2 57243  42.9982 216.7109 0001330 258.6967   7.5223 15.05997543 12373,15.05997543,0.000133,LEO
57244,STARLINK-5610,2023,95.48,-1.0,+,43.0,Active,0,LEO,USA,USA,Unknown,Unknown,Unknown,1 57244U 23094AC  23266.83334491 -.00907483  00000+0 -63609-1 0  9991,2 57244  42.9977 216.4407 0001337 271.2717 107.9169 15.07457757 12416,15.07457757,0.0001337,LEO
57245,STARLINK-5587,2023,95.5,-1.0,+,43.0,Active,0,LEO,USA,USA,Unknown,Unknown,Unknown,1 57245U 23094AD  23266.58334491 -.00936290  00000+0 -65275-1 0  9993,2 57245  42.9981 217.8505 0001358 276.4267 167.3729 15.07745881  5801,15.07745881,0.0001358,LEO
57246,STARLINK-5049,2023,95.38,-1.0,+,43.0,Active,0,LEO,USA,USA,Unknown,Unknown,Unknown,1 57246U 23094AE  23266.58334491 -.00948363  00000+0 -62982-1 0  9990,2 57246  42.9975 217.5249 0001311 275.5066 304.0045 15.09546718  5927,15.09546718,0.0001311,LEO
57247,STARLINK-5039,2023,95.46,-1.0,+,43.0,Active,0,LEO,USA,USA,Unknown,Unknown,Unknown,1 57247U 23094AF  23266.83334491 -.00905800  00000+0 -62951-1 0  9994,2 57247  42.9972 216.3827 0001299 272.7205 130.7155 15.07764375 12386,15.07764375,0.0001299,LEO
57248,STARLINK-5514,2023,95.46,-1.0,+,43.0,Active,0,LEO,USA,USA,Unknown,Unknown,Unknown,1 57248U 23094AG  23266.58334491 -.00939472  00000+0 -64494-1 0  9993,2 57248  42.9982 217.7430 0001302 275.7599 212.7706 15.08318027  5911,15.08318027,0.0001302,LEO
57249,STARLINK-5517,2023,95.39,-1.0,+,43.0,Active,0,LEO,USA,USA,Unknown,Unknown,Unknown,1 57249U 23094AH  23266.58334491 -.00952445  00000+0 -63555-1 0  9996,2 57249  42.9971 216.7196 0001279 279.9991 265.4237 15.09387624 12353,15.09387624,0.0001279,LEO
57250,STARLINK-5488,2023,95.41,-1.0,+,43.0,Active,0,LEO,USA,USA,Unknown,Unknown,Unknown,1 57250U 23094AJ  23266.58334491 -.00946004  00000+0 -63534-1 0  9999,2 57250  42.9973 217.5982 0001287 259.7588 289.1931 15.09133927  5919,15.09133927,0.0001287,LEO
57251,STARLINK-5513,2023,95.44,-1.0,+,43.0,Active,0,LEO,USA,USA,Unknown,Unknown,Unknown,1 57251U 23094AK  23266.58334491 -.00942378  00000+0 -64033-1 0  9995,2 57251  42.9969 217.6758 0001293 278.7683 237.8626 15.08699855  5873,15.08699855,0.0001293,LEO
57252,STARLINK-5511,2023,95.38,-1.0,+,43.0,Active,0,LEO,USA,USA,Unknown,Unknown,Unknown,1 57252U 23094AL  23266.58334491 -.00948264  00000+0 -62930-1 0  9990,2 57252  42.9971 217.5184 0001309 267.7533 314.4093 15.09572442  5917,15.09572442,0.0001309,LEO
57253,STARLINK-5516,2023,95.43,-1.0,+,43.0,Active,0,LEO,USA,USA,Unknown,Unknown,Unknown,1 57253U 23094AM  23266.58334491 -.00942739  00000+0 -63975-1 0  9992,2 57253  42.9975 217.6656 0001308 282.1083 238.7581 15.08747695  5932,15.08747695,0.0001308,LEO
57254,STARLINK-5490,2023,95.36,-1.0,+,43.0,Active,0,LEO,USA,USA,Unknown,Unknown,Unknown,1 57254U 23094AN  23266.58334491 -.00951812  00000+0 -62543-1 0  9995,2 57254  42.9970 217.4535 0001323 269.2992 339.9422 15.09940689  5919,15.09940689,0.0001323,LEO
57255,STARLINK-5481,2023,95.36,-1.0,+,43.0,Active,0,LEO,USA,USA,Unknown,Unknown,Unknown,1 57255U 23094AP  23266.58334491 -.00950558  00000+0 -62631-1 0  9990,2 57255  42.9974 217.4725 0001320 268.1239 333.2706 15.09838576  5939,15.09838576,0.000132,LEO
57256,STARLINK-5512,2023,95.1,-1.0,+,43.0,Active,0,LEO,USA,USA,Unknown,Unknown,Unknown,1 57256U 23094AQ  23266.58334491 -.00945718  00000+0 -55334-1 0  9995,2 57256  42.9998 217.6791 0001270 259.9923 263.0935 15.14057784  5915,15.14057784,0.000127,LEO
57257,STARLINK-5503,2023,95.39,-1.0,+,43.0,Active,0,LEO,USA,USA,Unknown,Unknown,Unknown,1 57257U 23094AR  23266.58334491 -.00949383  00000+0 -63255-1 0  9999,2 57257  42.9996 217.5484 0001279 273.8189 296.8239 15.09432720 12347,15.0943272,0.0001279,LEO
57258,STARLINK-5476,2023,95.34,-1.0,+,43.0,Active,0,LEO,USA,USA,Unknown,Unknown,Unknown,1 57258U 23094AS  23266.58334491 -.00950217  00000+0 -62041-1 0  9990,2 57258  42.9971 217.4118 0001368 267.5488 358.9406 15.10165274  5937,15.10165274,0.0001368,LEO
57259,STARLINK-5505,2023,92.27,-1.0,+,43.0,Active,0,LEO,USA,USA,Unknown,Unknown,Unknown,1 57259U 23094AT  23266.28852402  .00059569  00000+0  69921-3 0  9999,2 57259  42.9977 213.1684 0002834 203.8595 156.2138 15.60630596 12833,15.60630596,0.0002834,LEO
57260,STARLINK-5026,2023,95.32,-1.0,+,43.0,Active,0,LEO,USA,USA,Unknown,Unknown,Unknown,1 57260U 23094AU  23266.83334491 -.00912091  00000+0 -59520-1 0  9997,2 57260  42.9967 215.9676 0001270 269.4452 306.8969 15.10066326 12382,15.10066326,0.000127,LEO
57261,STARLINK-5485,2023,95.84,-1.0,+,43.0,Active,0,LEO,USA,USA,Unknown,Unknown,Unknown,1 57261U 23094AV  23266.31893983  .00000697  00000+0  66694-4 0  9998,2 57261  43.0013 231.6521 0001033 268.5447  91.5277 15.02533307 11986,15.02533307,0.0001033,LEO
57262,STARLINK-5504,2023,95.36,-1.0,+,43.0,Active,0,LEO,USA,USA,Unknown,Unknown,Unknown,1 57262U 23094AW  23266.58334491 -.00950864  00000+0 -62406-1 0  9998,2 57262  42.9972 217.4445 0001340 271.3631 341.5387 15.09980742  5938,15.09980742,0.000134,LEO
57263,STARLINK-5509,2023,95.84,-1.0,+,43.0,Active,0,LEO,USA,USA,Unknown,Unknown,Unknown,1 57263U 23094AX  23266.31671936  .00000999  00000+0  89053-4 0  9991,2 57263  43.0012 231.6332 0001094 261.4684  98.6034 15.02531114 11982,15.02531114,0.0001094,LEO
57264,STARLINK-5858,2023,95.3,-1.0,+,43.0,Active,0,LEO,USA,USA,Unknown,Unknown,Unknown,1 57264U 23094AY  23266.83334491 -.00911347  00000+0 -59056-1 0  9998,2 57264  42.9968 215.9244 0001306 261.1705 333.1847 15.10316166 12386,15.10316166,0.0001306,LEO
57265,STARLINK-5890,2023,95.29,-1.0,+,43.0,Active,0,LEO,USA,USA,Unknown,Unknown,Unknown,1 57265U 23094AZ  23266.83334491 -.00911929  00000+0 -58828-1 0  9991,2 57265  42.9967 215.8957 0001296 269.3962 336.9498 15.10480075 12383,15.10480075,0.0001296,LEO
57288,OBJECT A,2023,107.51,-1.0,+,86.51,Active,0,LEO,PRC,China,Unknown,Unknown,Unknown,1 57288U 23095A   23266.74022938  .00000056  00000+0  75599-4 0  9992,2 57288  86.5080 349.9549 0019550  89.3577 270.9805 13.39432587 10222,13.39432587,0.001955,LEO
57290,STARLINK-30198,2023,95.84,-1.0,+,43.0,Active,0,LEO,USA,USA,Unknown,Unknown,Unknown,1 57290U 23096A   23266.51206771  .00002496  00000+0  19971-3 0  9991,2 57290  42.9989  63.9943 0001808 265.4996  94.5640 15.02548664 11403,15.02548664,0.0001808,LEO
57291,STARLINK-30239,2023,95.84,-1.0,+,43.0,Active,0,LEO,USA,USA,Unknown,Unknown,Unknown,1 57291U 23096B   23266.50874075 -.00000059  00000+0  10736-4 0  9994,2 57291  43.0006  63.9720 0001488 275.3893  84.6780 15.02539334 11408,15.02539334,0.0001488,LEO
57292,STARLINK-30210,2023,95.84,-1.0,+,43.0,Active,0,LEO,USA,USA,Unknown,Unknown,Unknown,1 57292U 23096C   23266.50541260  .00000096  00000+0  22186-4 0  9994,2 57292  43.0006  63.9455 0001686 278.0493  82.0158 15.02538199 12387,15.02538199,0.0001686,LEO
57293,STARLINK-30202,2023,95.41,-1.0,+,43.0,Active,0,LEO,USA,USA,Unknown,Unknown,Unknown,1 57293U 23096D   23266.48939173  .00032637  00000+0  20123-2 0  9999,2 57293  43.0000  62.1385 0005468 311.6340  48.4036 15.09374567 11588,15.09374567,0.0005468,LEO
57294,STARLINK-30235,2023,95.84,-1.0,+,43.0,Active,0,LEO,USA,USA,Unknown,Unknown,Unknown,1 57294U 23096E   23266.49875026  .00001802  00000+0  14842-3 0  9999,2 57294  42.9991  63.8956 0001918 272.4936  87.5686 15.02541142 11403,15.02541142,0.0001918,LEO
57295,STARLINK-30206,2023,95.89,-1.0,+,43.0,Active,0,LEO,USA,USA,Unknown,Unknown,Unknown,1 57295U 23096F   23266.50349641 -.00001147  00000+0 -71489-4 0  9996,2 57295  42.9999  63.9002 0001480 281.2303  78.8372 15.01732683 11412,15.01732683,0.000148,LEO
57296,STARLINK-30238,2023,95.84,-1.0,+,43.0,Active,0,LEO,USA,USA,Unknown,Unknown,Unknown,1 57296U 23096G   23266.49542017  .00001879  00000+0  15418-3 0  9996,2 57296  42.9993  63.8680 0002274 279.5781  80.4804 15.02531596 11409,15.02531596,0.0002274,LEO
57297,STARLINK-30234,2023,95.84,-1.0,+,43.0,Active,0,LEO,USA,USA,Unknown,Unknown,Unknown,1 57297U 23096H   23266.49209199  .00003774  00000+0  29426-3 0  9998,2 57297  43.0013  63.8438 0001741 274.8280  85.2363 15.02539498 11408,15.02539498,0.0001741,LEO
57298,STARLINK-30241,2023,95.84,-1.0,+,43.0,Active,0,LEO,USA,USA,Unknown,Unknown,Unknown,1 57298U 23096J   23266.51971800  .00001549  00000+0  12967-3 0  9997,2 57298  42.9997  63.1739 0001246 266.4414  93.6286 15.02547850 11421,15.0254785,0.0001246,LEO
57299,STARLINK-30199,2023,95.84,-1.0,+,43.0,Active,0,LEO,USA,USA,Unknown,Unknown,Unknown,1 57299U 23096K   23266.48876070  .00001815  00000+0  14934-3 0  9999,2 57299  43.0005  63.8201 0002046 273.2693  86.7915 15.02545083 12507,15.02545083,0.0002046,LEO
57300,STARLINK-30236,2023,95.84,-1.0,+,43.0,Active,0,LEO,USA,USA,Unknown,Unknown,Unknown,1 57300U 23096L   23266.75133642  .00001057  00000+0  93280-4 0  9993,2 57300  42.9983  62.3477 0001305 271.5222  88.5471 15.02554639 11455,15.02554639,0.0001305,LEO
57301,STARLINK-30201,2023,95.84,-1.0,+,43.0,Active,0,LEO,USA,USA,Unknown,Unknown,Unknown,1 57301U 23096M   23266.74801163 -.00000102  00000+0  75527-5 0  9999,2 57301  43.0011  62.3258 0001367 288.1852  71.8842 15.02540890 11448,15.0254089,0.0001367,LEO
57302,STARLINK-30233,2023,95.89,-1.0,+,43.0,Active,0,LEO,USA,USA,Unknown,Unknown,Unknown,1 57302U 23096N   23266.46583498  .00001869  00000+0  15653-3 0  9999,2 57302  42.9988  63.6392 0000791 324.7550  35.3240 15.01738253 11601,15.01738253,7.91e-05,LEO
57303,STARLINK-30232,2023,95.84,-1.0,+,43.0,Active,0,LEO,USA,USA,Unknown,Unknown,Unknown,1 57303U 23096P   23266.47544497  .00001990  00000+0  16227-3 0  9990,2 57303  43.0003  63.7251 0001142 294.3660  65.7063 15.02544385 12368,15.02544385,0.0001142,LEO
